NORAD_CAT_ID,OBJECT_NAME,OBJECT_TYPE,EPOCH,MEAN_MOTION,ECCENTRICITY,INCLINATION,RA_OF_ASC_NODE,ARG_OF_PERICENTER,MEAN_ANOMALY,BSTAR,MEAN_MOTION_DOT,MEAN_MOTION_DDOT,TLE_LINE0,TLE_LINE1,TLE_LINE2,SEMIMAJOR_AXIS,PERIOD,APOGEE,PERIGEE,DECAYED
50835.0,STARLINK-3310,PAYLOAD,2024-05-24 15:37:28,15.08862217,0.0001311,53.2167,235.3263,112.8193,247.2938,0.00032822,4.943e-05,0.0,0 STARLINK-3310,1 50835U 22001AJ  24145.65102214  .00004943  00000-0  32822-3 0  9993,2 50835  53.2167 235.3263 0001311 112.8193 247.2938 15.08862217132788,6917.812,95.436,540.584,538.771,0.0
50835.0,STARLINK-3310,PAYLOAD,2024-05-24 23:34:24,15.08839532,0.0001094,53.2166,233.8434,96.6477,263.464,7.0151e-05,8.29e-06,0.0,0 STARLINK-3310,1 50835U 22001AJ  24145.98223370  .00000829  00000-0  70151-4 0  9993,2 50835  53.2166 233.8434 0001094  96.6477 263.4640 15.08839532132832,6917.882,95.438,540.504,538.99,0.0
50835.0,STARLINK-3310,PAYLOAD,2024-05-25 12:17:30,15.08831003,0.0001374,53.2169,231.4642,98.3006,261.8142,-9.5963e-05,-1.814e-05,0.0,0 STARLINK-3310,1 50835U 22001AJ  24146.51216134 -.00001814  00000-0 -95963-4 0  9998,2 50835  53.2169 231.4642 0001374  98.3006 261.8142 15.08831003132911,6917.908,95.438,540.723,538.822,0.0
50835.0,STARLINK-3310,PAYLOAD,2024-05-26 10:32:54,15.08842538,0.0001332,53.2164,227.3023,89.9037,270.2107,1.2559e-05,-8.8e-07,0.0,0 STARLINK-3310,1 50835U 22001AJ  24147.43951711 -.00000088  00000-0  12559-4 0  9998,2 50835  53.2164 227.3023 0001332  89.9037 270.2107 15.08842538133053,6917.873,95.437,540.659,538.816,0.0
50835.0,STARLINK-3310,PAYLOAD,2024-05-26 15:19:03,15.08848085,0.0001303,53.2163,226.4077,105.3268,254.7868,8.0494e-05,9.94e-06,0.0,0 STARLINK-3310,1 50835U 22001AJ  24147.63823327  .00000994  00000-0  80494-4 0  9999,2 50835  53.2163 226.4077 0001303 105.3268 254.7868 15.08848085131825,6917.856,95.437,540.622,538.819,0.0
50835.0,STARLINK-3310,PAYLOAD,2024-05-27 11:59:04,15.08842044,0.0001256,53.2162,222.5443,100.3891,259.7243,0.00018231,2.615e-05,0.0,0 STARLINK-3310,1 50835U 22001AJ  24148.49935766  .00002615  00000-0  18231-3 0  9996,2 50835  53.2162 222.5443 0001256 100.3891 259.7243 15.08842044133218,6917.874,95.437,540.608,538.87,0.0
50835.0,STARLINK-3310,PAYLOAD,2024-05-28 11:49:51,15.08839161,0.0001324,53.2174,218.0785,101.3846,258.7295,6.3389e-05,7.21e-06,0.0,0 STARLINK-3310,1 50835U 22001AJ  24149.49296049  .00000721  00000-0  63389-4 0  9992,2 50835  53.2174 218.0785 0001324 101.3846 258.7295 15.08839161133365,6917.883,95.438,540.664,538.832,0.0
50835.0,STARLINK-3310,PAYLOAD,2024-05-29 13:16:01,15.08842283,0.0001215,53.217,213.3242,96.0945,264.0185,5.2876e-05,5.54e-06,0.0,0 STARLINK-3310,1 50835U 22001AJ  24150.55279909  .00000554  00000-0  52876-4 0  9990,2 50835  53.2170 213.3242 0001215  96.0945 264.0185 15.08842283133521,6917.873,95.437,540.579,538.898,0.0
50835.0,STARLINK-3310,PAYLOAD,2024-05-30 13:06:48,15.08844521,0.0001232,53.2169,208.8624,88.6879,271.4254,0.00014247,1.981e-05,0.0,0 STARLINK-3310,1 50835U 22001AJ  24151.54639688  .00001981  00000-0  14247-3 0  9998,2 50835  53.2169 208.8624 0001232  88.6879 271.4254 15.08844521132417,6917.867,95.437,540.584,538.879,0.0
50835.0,STARLINK-3310,PAYLOAD,2024-05-31 12:57:35,15.08845095,0.0001461,53.2179,204.399,76.6598,283.4557,8.2352e-05,1.023e-05,0.0,0 STARLINK-3310,1 50835U 22001AJ  24152.53999810  .00001023  00000-0  82352-4 0  9994,2 50835  53.2179 204.3990 0001461  76.6598 283.4557 15.08845095133826,6917.865,95.437,540.741,538.719,0.0
50835.0,STARLINK-3310,PAYLOAD,2024-05-31 20:54:31,15.08843081,0.0001166,53.2163,202.9155,94.6459,265.4666,5.3499e-05,5.64e-06,0.0,0 STARLINK-3310,1 50835U 22001AJ  24152.87119758  .00000564  00000-0  53499-4 0  9995,2 50835  53.2163 202.9155 0001166  94.6459 265.4666 15.08843081132614,6917.871,95.437,540.543,538.929,0.0
50835.0,STARLINK-3310,PAYLOAD,2024-06-01 12:48:22,15.08843594,0.0001271,53.2161,199.9427,99.2653,260.8483,1.711e-05,-1.6e-07,0.0,0 STARLINK-3310,1 50835U 22001AJ  24153.53359814 -.00000016  00000-0  17110-4 0  9991,2 50835  53.2161 199.9427 0001271  99.2653 260.8483 15.08843594132719,6917.869,95.437,540.614,538.855,0.0
50835.0,STARLINK-3310,PAYLOAD,2024-06-01 20:45:18,15.08841603,0.0001293,53.2166,198.4554,93.1401,266.9739,2.4811e-06,-2.48e-06,0.0,0 STARLINK-3310,1 50835U 22001AJ  24153.86479963 -.00000248  00000-0  24811-5 0  9999,2 50835  53.2166 198.4554 0001293  93.1401 266.9739 15.08841603134023,6917.875,95.437,540.635,538.846,0.0
50835.0,STARLINK-3310,PAYLOAD,2024-06-02 12:39:10,15.08837818,0.0001367,53.2168,195.4825,96.5194,263.5953,1.1084e-05,-1.12e-06,0.0,0 STARLINK-3310,1 50835U 22001AJ  24154.52720307 -.00000112  00000-0  11084-4 0  9991,2 50835  53.2168 195.4825 0001367  96.5194 263.5953 15.08837818132865,6917.887,95.438,540.698,538.806,0.0
50835.0,STARLINK-3310,PAYLOAD,2024-06-03 02:57:38,15.0883543,0.0001407,53.2171,192.806,96.6927,263.4225,2.3416e-05,8.5e-07,0.0,0 STARLINK-3310,1 50835U 22001AJ  24155.12336633  .00000085  00000-0  23416-4 0  9993,2 50835  53.2171 192.8060 0001407  96.6927 263.4225 15.08835430134211,6917.894,95.438,540.733,538.786,0.0
50835.0,STARLINK-3310,PAYLOAD,2024-06-03 09:19:11,15.08837339,0.0001372,53.2171,191.6172,94.5263,265.5886,4.1697e-05,3.76e-06,0.0,0 STARLINK-3310,1 50835U 22001AJ  24155.38832537  .00000376  00000-0  41697-4 0  9999,2 50835  53.2171 191.6172 0001372  94.5263 265.5886 15.08837339132992,6917.889,95.438,540.703,538.804,0.0
50835.0,STARLINK-3310,PAYLOAD,2024-06-03 18:51:30,15.08839758,0.000135,53.2171,189.8332,93.7187,266.396,5.1886e-05,5.38e-06,0.0,0 STARLINK-3310,1 50835U 22001AJ  24155.78576431  .00000538  00000-0  51886-4 0  9992,2 50835  53.2171 189.8332 0001350  93.7187 266.3960 15.08839758133058,6917.881,95.438,540.68,538.812,0.0
50835.0,STARLINK-3310,PAYLOAD,2024-06-04 09:09:57,15.08844841,0.000132,53.2169,187.1576,93.7058,266.4085,0.0001323,1.819e-05,0.0,0 STARLINK-3310,1 50835U 22001AJ  24156.38191952  .00001819  00000-0  13230-3 0  9993,2 50835  53.2169 187.1576 0001320  93.7058 266.4085 15.08844841134408,6917.866,95.437,540.644,538.817,0.0
50835.0,STARLINK-3310,PAYLOAD,2024-06-04 18:42:17,15.08839953,0.0001242,53.2161,185.3741,93.4386,266.6748,6.0701e-05,6.78e-06,0.0,0 STARLINK-3310,1 50835U 22001AJ  24156.77936470  .00000678  00000-0  60701-4 0  9996,2 50835  53.2161 185.3741 0001242  93.4386 266.6748 15.08839953134460,6917.881,95.438,540.605,538.886,0.0
50835.0,STARLINK-3310,PAYLOAD,2024-06-05 12:11:32,15.08829752,0.0001267,53.2163,182.1029,87.7115,272.4022,-5.718e-06,-3.79e-06,0.0,0 STARLINK-3310,1 50835U 22001AJ  24157.50801722 -.00000379  00000-0 -57180-5 0  9997,2 50835  53.2163 182.1029 0001267  87.7115 272.4022 15.08829752134577,6917.912,95.438,540.653,538.9,0.0
50835.0,STARLINK-3310,PAYLOAD,2024-06-05 18:33:05,15.08833838,0.000126,53.2162,180.9133,88.3854,271.7283,7.8667e-06,-1.63e-06,0.0,0 STARLINK-3310,1 50835U 22001AJ  24157.77297550 -.00000163  00000-0  78667-5 0  9997,2 50835  53.2162 180.9133 0001260  88.3854 271.7283 15.08833838133354,6917.899,95.438,540.636,538.893,0.0
50835.0,STARLINK-3310,PAYLOAD,2024-06-06 05:40:46,15.08838775,0.0001266,53.216,178.8315,86.2468,273.8669,3.2214e-05,2.25e-06,0.0,0 STARLINK-3310,1 50835U 22001AJ  24158.23665310  .00000225  00000-0  32214-4 0  9997,2 50835  53.2160 178.8315 0001266  86.2468 273.8669 15.08838775134687,6917.884,95.438,540.625,538.873,0.0
50835.0,STARLINK-3310,PAYLOAD,2024-06-06 10:26:56,15.08841059,0.0001345,53.2167,177.9401,88.4961,271.6186,1.6143e-05,-3.1e-07,0.0,0 STARLINK-3310,1 50835U 22001AJ  24158.43537221 -.00000031  00000-0  16143-4 0  9997,2 50835  53.2167 177.9401 0001345  88.4961 271.6186 15.08841059133453,6917.877,95.437,540.673,538.812,0.0
50835.0,STARLINK-3310,PAYLOAD,2024-06-07 08:42:19,15.088421,0.0001254,53.2161,173.776,83.3289,276.7846,0.00016783,2.384e-05,0.0,0 STARLINK-3310,1 50835U 22001AJ  24159.36272948  .00002384  00000-0  16783-3 0  9993,2 50835  53.2161 173.7760 0001254  83.3289 276.7846 15.08842100134857,6917.874,95.437,540.606,538.871,0.0
50835.0,STARLINK-3310,PAYLOAD,2024-06-07 18:14:38,15.08844529,0.0001263,53.2162,171.992,83.3561,276.7574,0.00016853,2.396e-05,0.0,0 STARLINK-3310,1 50835U 22001AJ  24159.76016834  .00002396  00000-0  16853-3 0  9998,2 50835  53.2162 171.9920 0001263  83.3561 276.7574 15.08844529133651,6917.867,95.437,540.605,538.858,0.0
50835.0,STARLINK-3310,PAYLOAD,2024-06-08 06:57:43,15.08848787,0.0001278,53.216,169.613,84.5125,275.6013,0.00014987,2.099e-05,0.0,0 STARLINK-3310,1 50835U 22001AJ  24160.29008513  .00002099  00000-0  14987-3 0  9999,2 50835  53.2160 169.6130 0001278  84.5125 275.6013 15.08848787133736,6917.854,95.437,540.603,538.834,0.0
50835.0,STARLINK-3310,PAYLOAD,2024-06-08 18:05:25,15.08847662,0.0001251,53.2159,167.5314,84.1619,275.9516,8.885e-05,1.127e-05,0.0,0 STARLINK-3310,1 50835U 22001AJ  24160.75376499  .00001127  00000-0  88850-4 0  9993,2 50835  53.2159 167.5314 0001251  84.1619 275.9516 15.08847662135060,6917.857,95.437,540.587,538.857,0.0
50835.0,STARLINK-3310,PAYLOAD,2024-06-09 05:13:07,15.08840611,0.0001303,53.2164,165.4504,84.1713,275.9427,2.4159e-06,-2.49e-06,0.0,0 STARLINK-3310,1 50835U 22001AJ  24161.21745075 -.00000249  00000-0  24159-5 0  9993,2 50835  53.2164 165.4504 0001303  84.1713 275.9427 15.08840611135133,6917.879,95.438,540.645,538.842,0.0
50835.0,STARLINK-3310,PAYLOAD,2024-06-09 09:59:16,15.08842667,0.0001316,53.2166,164.5565,93.015,267.0992,4.4414e-06,-2.17e-06,0.0,0 STARLINK-3310,1 50835U 22001AJ  24161.41616803 -.00000217  00000-0  44414-5 0  9992,2 50835  53.2166 164.5565 0001316  93.0150 267.0992 15.08842667133905,6917.872,95.437,540.648,538.827,0.0
50835.0,STARLINK-3310,PAYLOAD,2024-06-10 06:39:17,15.08840889,0.0001338,53.2168,160.691,93.3615,266.753,-2.9044e-05,-7.5e-06,0.0,0 STARLINK-3310,1 50835U 22001AJ  24162.27728891 -.00000750  00000-0 -29044-4 0  9992,2 50835  53.2168 160.6910 0001338  93.3615 266.7530 15.08840889135293,6917.878,95.437,540.668,538.817,0.0
